STARLINK-36135          
1 66986U 25288AD  26002.80394901  .00153586  00000+0  25691-2 0  9996
2 66986  43.0009  40.5088 0001247 270.1857  89.8861 15.50619097  5156
STARLINK-36147          
1 66987U 25288AE  26002.80360797  .00166111  00000+0  27737-2 0  9994
2 66987  43.0006  40.5064 0000531 283.1206  76.9595 15.50618408  5151
YAOGAN-47               
1 66988U 25289A   25362.17815560  .00004855  00000+0  20730-3 0  9990
2 66988  97.5253  67.3364 0000855 117.9958 242.1365 15.23366104  2890
CZ-4B R/B               
1 66989U 25289B   26002.93622238  .00186761  12744-4  79291-3 0  9991
2 66989  97.5218  74.8821 0132421 282.4463  76.2010 15.73033549  3890
TJS-22                  
1 66990U 25290A   26002.32611096  .00000003  00000+0  00000+0 0  9997
2 66990   1.9370 285.0565 0003325 344.4295  16.3515  1.00272813   361
CZ-3B R/B               
1 66991U 25290B   25349.72468800  .00057911 -20514-6  75879-3 0  9998
2 66991  28.4636 300.4666 7240884 182.7002 168.6250  2.38388611   165
2025-292A               
1 66993U 25292A   26002.95561453  .00009340  00000+0  66545-3 0  9995
2 66993  97.6505  80.2986 0015167 197.2682 162.8030 15.04718897  3581
2025-292B               
1 66994U 25292B   26002.95484274  .00010441  00000+0  74206-3 0  9998
2 66994  97.6516  80.3023 0014963 197.5801 162.4909 15.04784130  3580
2025-292C               
1 66995U 25292C   26002.95521792  .00011277  00000+0  80288-3 0  9991
2 66995  97.6507  80.2991 0015152 195.7557 164.3200 15.04696129  3588
2025-292D               
1 66996U 25292D   26002.95432683  .00008187  00000+0  58345-3 0  9997
2 66996  97.6502  80.2988 0014336 199.5936 160.4741 15.04761401  3589
2025-292E               
1 66997U 25292E   26002.95271627  .00009113  00000+0  64634-3 0  9995
2 66997  97.6524  80.3072 0014669 200.9066 159.1563 15.04903589  3570
2025-292F               
1 66998U 25292F   26002.94992636  .00011144  00000+0  78438-3 0  9999
2 66998  97.6547  80.3168 0015770 201.4654 158.5912 15.05121129  3580
